satname,norad_id,inclination_deg,eccentricity,mean_motion_rev_per_day,perigee_km,apogee_km,l1,l2
STARLINK-1008,44714,53.0533,0.0001564,15.06390214,546.1584215758621,548.3246799865465,1 44714U 19074B   25266.17900924 -.00000055  00000+0  15232-4 0  9991,2 44714  53.0533 218.6047 0001564  98.0837 262.0330 15.06390214323500
STARLINK-1010,44716,53.05,0.0009101,15.78833073,327.6373158486758,339.8542849219366,1 44716U 19074D   25266.00002315  .00176532  00000+0  96304-3 0  9993,2 44716  53.0500 167.3434 0009101  64.6661 100.2816 15.78833073  5957
STARLINK-1011,44717,53.0522,0.0007207,15.69095475,356.62861345365764,366.34310584355535,1 44717U 19074E   25266.33336806  .00252952  00000+0  20797-2 0  9998,2 44717  53.0522 219.6810 0007207  65.9960 262.5371 15.69095475  5866
STARLINK-1012,44718,53.0534,0.0001336,15.06392367,546.3097223899094,548.1601817755063,1 44718U 19074F   25266.15689646 -.00000794  00000+0 -34393-4 0  9998,2 44718  53.0534 218.7042 0001336  92.6597 267.4545 15.06392367323497
STARLINK-1015,44721,53.0435,0.0001435,16.02118232,267.5998478528363,269.50744806880084,1 44721U 19074J   25266.11581139  .00582092  16569-3  98607-3 0  9998,2 44721  53.0435 153.9342 0001435 245.3982 114.6899 16.02118232324398
STARLINK-1017,44723,53.0533,0.0003719,15.11293231,529.6850137227966,534.8249632838442,1 44723U 19074L   25266.10260826  .00068227  00000+0  39850-2 0  9998,2 44723  53.0533 217.3365 0003719  34.5994 325.5239 15.11293231323513
STARLINK-1019,44724,53.0549,0.0001434,15.06399568,546.2197867833011,548.2059771294471,1 44724U 19074M   25266.15322009  .00004084  00000+0  29291-3 0  9996,2 44724  53.0549 218.7215 0001434  86.2923 273.8230 15.06399568323495
STARLINK-1020,44725,53.0531,0.000134,15.06397575,546.2909925212934,548.1469879266742,1 44725U 19074N   25266.15873334 -.00000387  00000+0 -70848-5 0  9999,2 44725  53.0531 238.6956 0001340  91.6370 268.4773 15.06397575323210
STARLINK-1021,44726,53.0426,0.0001149,15.9552165,286.09544983034357,287.62706643006277,1 44726U 19074P   25266.33336806  .00352662  60556-4  86908-3 0  9991,2 44726  53.0426 158.8809 0001149 348.6809 156.8469 15.95521650  5820
STARLINK-1029,44734,53.0491,0.000266,15.89285755,302.5066956431301,306.0617437320052,1 44734U 19074X   25266.33336806  .00460421  00000+0  14790-2 0  9995,2 44734  53.0491  82.8650 0002660 128.2267 184.4029 15.89285755  5959
STARLINK-1031,44736,53.0545,0.0008336,15.38503807,444.840602464983,456.2253610585758,1 44736U 19074Z   25266.18838723  .00143568  00000+0  36597-2 0  9994,2 44736  53.0545 217.7554 0008336  42.9740 317.1913 15.38503807323525
STARLINK-1036,44741,53.0544,0.0001436,15.06399309,546.2191953975271,548.2081561116038,1 44741U 19074AE  25265.65744863  .00000403  00000+0  45921-4 0  9995,2 44741  53.0544 240.9473 0001436  87.1600 272.9554 15.06399309323140
STARLINK-1039,44744,53.0514,0.0005702,15.09475669,533.8576171272116,541.7445529193719,1 44744U 19074AH  25265.71632599  .00043117  00000+0  26630-2 0  9990,2 44744  53.0514 259.9617 0005702   0.9646 359.1354 15.09475669322886
STARLINK-1042,44747,53.048,0.0003391,15.40990624,440.87125534904317,445.4974754990735,1 44747U 19074AL  25265.96388369  .00030986  00000+0  74691-3 0  9994,2 44747  53.0480 174.1806 0003391  43.4330 316.6941 15.40990624324131
STARLINK-1043,44748,53.0525,0.0001259,15.06408054,546.314975422546,548.0587719739442,1 44748U 19074AM  25266.22693535  .00004288  00000+0  30655-3 0  9997,2 44748  53.0525 258.3907 0001259  82.1456 277.9676 15.06408054322954
STARLINK-1046,44751,53.0528,0.000167,15.06399867,546.055432286902,548.3684988414016,1 44751U 19074AQ  25265.71089723  .00000860  00000+0  76606-4 0  9991,2 44751  53.0528 260.7060 0001670  87.1243 272.9937 15.06399867322871
STARLINK-1047,44752,53.0707,0.0005212,15.2807372,477.9958389396288,485.1463986826784,1 44752U 19074AR  25266.12042542  .00018204  00000+0  66701-3 0  9991,2 44752  53.0707 206.2317 0005212  64.3308 295.8228 15.28073720323684
STARLINK-1048,44753,53.0537,0.0001458,15.06396189,546.2135206062976,548.232955651737,1 44753U 19074AS  25266.13477500  .00001063  00000+0  90269-4 0  9991,2 44753  53.0537 218.8012 0001458  94.4767 265.6388 15.06396189323492
STARLINK-1053,44758,53.0424,0.0003227,15.55454154,398.6452074185527,403.02035451518805,1 44758U 19074AX  25266.17925763  .00069255  00000+0  99600-3 0  9993,2 44758  53.0424 191.0020 0003227  88.1992 271.9388 15.55454154323906
STARLINK-1054,44759,53.0449,0.0010089,15.66955552,360.81467558178974,374.426265005347,1 44759U 19074AY  25266.33336806  .00327040  00000+0  29031-2 0  9995,2 44759  53.0449 219.7652 0010089  36.9261 253.1626 15.66955552  5956
STARLINK-1056,44761,53.0425,0.001033,15.78729632,327.10530190445115,340.9726574784945,1 44761U 19074BA  25266.33336806  .00357917  00000+0  19161-2 0  9997,2 44761  53.0425 208.9991 0010330  55.5806 208.6548 15.78729632  5948
STARLINK-1057,44762,53.0431,0.0001014,15.99099481,276.2411972841646,277.5908420365513,1 44762U 19074BB  25266.33336806  .01062271  56281-3  21494-2 0  9993,2 44762  53.0431 179.4925 0001014 129.9575 126.5606 15.99099481  6032
STARLINK-1060,44765,53.0553,0.0001523,15.38776397,448.68662095336094,450.76638817685216,1 44765U 19074BE  25266.33336806  .01097098  00000+0  25793-1 0  9990,2 44765  53.0553 235.5014 0001523  82.4148 343.6147 15.38776397  5703
STARLINK-1063,44768,53.0525,0.0001298,15.06395543,546.3263060191312,548.1241300509328,1 44768U 19074BH  25266.16425157 -.00005906  00000+0 -37796-3 0  9998,2 44768  53.0525 258.6700 0001298  92.3566 267.7572 15.06395543322958
STARLINK-1067,44771,53.054,0.0001336,15.06399224,546.2887093824502,548.1391631526212,1 44771U 19074BL  25266.28590808  .00000138  00000+0  28140-4 0  9995,2 44771  53.0540 258.1268 0001336  90.1199 269.9943 15.06399224322961
STARLINK-1068,44772,53.0528,0.0001541,15.06409047,546.1166383851005,548.251022265008,1 44772U 19074BM  25266.21034598  .00003910  00000+0  28120-3 0  9996,2 44772  53.0528 238.4630 0001541  89.1032 271.0133 15.06409047323224
STARLINK-1112,44925,53.054,0.0002851,15.46064686,426.31099710349554,430.1919998253197,1 44925U 20001M   25265.52594335  .00132802  00000+0  26358-2 0  9994,2 44925  53.0540 351.4698 0002851 157.6839 202.4292 15.46064686314920
STARLINK-1114,44927,53.0558,9.72e-05,15.06409789,546.5084152619529,547.854697189282,1 44927U 20001P   25266.04998443  .00002378  00000+0  17843-3 0  9996,2 44927  53.0558  19.1848 0000972  87.2883 272.8217 15.06409789314588
STARLINK-1123,44930,53.0563,0.0001197,15.06409355,546.3539255686264,548.0118471494206,1 44930U 20001S   25265.60032194  .00003753  00000+0  27064-3 0  9997,2 44930  53.0563  21.2015 0001197  89.1435 270.9691 15.06409355314519
STARLINK-1144,44933,53.0484,0.0012149,15.50635767,406.615838620196,423.1214837757743,1 44933U 20001V   25265.90792592  .00155610  00000+0  26179-2 0  9993,2 44933  53.0484 328.0832 0012149 307.3998  52.5904 15.50635767316584
STARLINK-1091,44940,53.0414,0.0005555,15.76310884,337.1710670837565,344.6359210726778,1 44940U 20001AC  25266.33336806  .00214506  00000+0  13046-2 0  9990,2 44940  53.0414 311.2432 0005555 322.8773 309.7825 15.76310884  5987
STARLINK-1094,44941,53.057,0.0001072,15.06429217,546.3796257223303,547.864401254822,1 44941U 20001AD  25265.54685927  .00008946  00000+0  61822-3 0  9999,2 44941  53.0570   1.4397 0001072 100.2928 259.8182 15.06429217314785
STARLINK-1096,44942,52.9924,0.0002249,15.76135169,339.89164055035417,342.91408958166176,1 44942U 20001AE  25265.92456617  .00144986  00000+0  89776-3 0  9997,2 44942  52.9924 139.9242 0002249 157.1731 202.9388 15.76135169317904
STARLINK-1122,44949,53.0569,0.0001126,15.06424376,546.3570641809656,547.9166358519888,1 44949U 20001AM  25265.56896340  .00002168  00000+0  16426-3 0  9992,2 44949  53.0569   1.3392 0001126  86.5374 273.5744 15.06424376314784
STARLINK-1080,44961,53.0561,0.0001967,15.06409858,545.8191346344411,548.5435548712667,1 44961U 20001AZ  25266.16425234  .00010192  00000+0  70192-3 0  9999,2 44961  53.0561 338.6733 0001967  94.6043 265.5170 15.06409858315166
STARLINK-1090,44968,53.0564,0.0001524,15.06414785,546.1108281988782,548.2216606277752,1 44968U 20001BG  25265.90255440  .00003988  00000+0  28638-3 0  9990,2 44968  53.0564 339.8498 0001524  79.0567 281.0593 15.06414785315127
STARLINK-1107,44972,53.0122,0.0008213,15.55710436,394.5213091259666,405.65522194713685,1 44972U 20001BL  25266.28477995  .00139950  00000+0  19670-2 0  9992,2 44972  53.0122 267.8780 0008213  57.1821 302.9979 15.55710436316160
STARLINK-1132,45044,53.0539,0.0001407,15.06407552,546.2140189571592,548.1628055281644,1 45044U 20006A   25265.79566520  .00000981  00000+0  84756-4 0  9996,2 45044  53.0539 300.3263 0001407  88.3810 271.7340 15.06407552311432
STARLINK-1131,45047,53.0545,0.0001399,15.06445062,546.1046158987328,548.0422897834369,1 45047U 20006D   25265.44002348  .00012857  00000+0  87940-3 0  9996,2 45047  53.0545 322.4618 0001399  87.0941 273.0208 15.06445062311090
STARLINK-1134,45048,53.0457,0.0008405,15.23406428,489.79743998094455,501.3521495079094,1 45048U 20006E   25265.43727613  .00042731  00000+0  17746-2 0  9995,2 45048  53.0457 305.5756 0008405  10.1728 349.9437 15.23406428311339
STARLINK-1156,45054,53.0544,0.0001308,15.0641549,546.2582543443013,548.0699131078045,1 45054U 20006L   25265.41048321  .00003551  00000+0  25706-3 0  9995,2 45054  53.0544 322.0582 0001308  89.0062 271.1077 15.06415490311094
STARLINK-1159,45057,53.0573,0.0001552,15.06403754,546.1252401822985,548.2748648033921,1 45057U 20006P   25266.15505000  .00002208  00000+0  16710-3 0  9995,2 45057  53.0573 318.7127 0001552  99.9147 260.2017 15.06403754311218
STARLINK-1166,45060,53.0554,0.0001192,15.0641303,546.3461263649169,547.9971199406764,1 45060U 20006S   25265.43628044  .00001249  00000+0  10270-3 0  9992,2 45060  53.0554 321.9410 0001192  99.7267 260.3856 15.06413030311101
